[{"OBJECT_NAME":"SNUSAT-2","OBJECT_ID":"2018-099AA","EPOCH":"2026-03-09T01:47:07.616544","MEAN_MOTION":15.20158581,"ECCENTRICITY":0.00089847,"INCLINATION":97.4195,"RA_OF_ASC_NODE":123.05,"ARG_OF_PERICENTER":287.8247,"MEAN_ANOMALY":72.2008,"EPHEMERIS_TYPE":0,"CLASSIFICATION_TYPE":"U","NORAD_CAT_ID":43782,"ELEMENT_SET_NO":999,"REV_AT_EPOCH":39781,"BSTAR":0.00056668198,"MEAN_MOTION_DOT":0.00012216,"MEAN_MOTION_DDOT":0},{"OBJECT_NAME":"TRANSPORTER-13 OBJECT U","OBJECT_ID":"2025-052U","EPOCH":"2026-03-09T16:34:18.384384","MEAN_MOTION":15.22399222,"ECCENTRICITY":0.00064743,"INCLINATION":97.4037,"RA_OF_ASC_NODE":322.9372,"ARG_OF_PERICENTER":126.5652,"MEAN_ANOMALY":233.6181,"EPHEMERIS_TYPE":0,"CLASSIFICATION_TYPE":"U","NORAD_CAT_ID":63228,"ELEMENT_SET_NO":999,"REV_AT_EPOCH":5472,"BSTAR":0.0003303988,"MEAN_MOTION_DOT":7.569e-5,"MEAN_MOTION_DDOT":0}]
