SNUSAT-2                
1 43782U 18099AA  26068.07439371  .00012216  00000+0  56668-3 0  9992
2 43782  97.4195 123.0500 0008984 287.8247  72.2008 15.20158581397812
TRANSPORTER-13 OBJECT U 
1 63228U 25052U   26068.69049056  .00007569  00000+0  33040-3 0  9995
2 63228  97.4037 322.9372 0006474 126.5652 233.6181 15.22399222 54728
